NORAD_CAT_ID,OBJECT_NAME,OBJECT_TYPE,EPOCH,MEAN_MOTION,ECCENTRICITY,INCLINATION,RA_OF_ASC_NODE,ARG_OF_PERICENTER,MEAN_ANOMALY,BSTAR,MEAN_MOTION_DOT,MEAN_MOTION_DDOT,TLE_LINE0,TLE_LINE1,TLE_LINE2,SEMIMAJOR_AXIS,PERIOD,APOGEE,PERIGEE,DECAYED
53792.0,STARLINK-4739,PAYLOAD,2023-06-08 03:07:22,15.08830716,0.0001165,53.2155,108.0504,90.7193,269.3933,7.7531e-05,9.46e-06,0.0,0 STARLINK-4739,1 53792U 22111V   23159.13011984  .00000946  00000-0  77531-4 0  9996,2 53792  53.2155 108.0504 0001165  90.7193 269.3933 15.08830716 41086,6917.909,95.438,540.58,538.968,0.0
53792.0,STARLINK-4739,PAYLOAD,2023-06-08 06:18:08,15.0883907,0.0001215,53.2155,107.4555,89.9944,270.1187,1.7557e-05,-8e-08,0.0,0 STARLINK-4739,1 53792U 22111V   23159.26259598 -.00000008  00000-0  17557-4 0  9997,2 53792  53.2155 107.4555 0001215  89.9944 270.1187 15.08839070 41101,6917.883,95.438,540.589,538.908,0.0
53792.0,STARLINK-4739,PAYLOAD,2023-06-09 06:08:54,15.08846261,0.0001275,53.2156,102.9953,88.1665,271.9473,0.00013648,1.885e-05,0.0,0 STARLINK-4739,1 53792U 22111V   23160.25618786  .00001885  00000-0  13648-3 0  9995,2 53792  53.2156 102.9953 0001275  88.1665 271.9473 15.08846261 41254,6917.861,95.437,540.608,538.844,0.0
53792.0,STARLINK-4739,PAYLOAD,2023-06-10 02:48:56,15.08838149,0.000147,53.2161,99.1269,102.0513,258.0644,-1.0396e-05,-4.53e-06,0.0,0 STARLINK-4739,1 53792U 22111V   23161.11731854 -.00000453  00000-0 -10396-4 0  9993,2 53792  53.2161  99.1269 0001470 102.0513 258.0644 15.08838149 41388,6917.886,95.438,540.768,538.734,0.0
53792.0,STARLINK-4739,PAYLOAD,2023-06-10 12:21:15,15.08837553,0.0001178,53.2158,97.3458,92.8566,267.2561,3.7625e-05,3.11e-06,0.0,0 STARLINK-4739,1 53792U 22111V   23161.51475970  .00000311  00000-0  37625-4 0  9996,2 53792  53.2158  97.3458 0001178  92.8566 267.2561 15.08837553 42247,6917.888,95.438,540.568,538.938,0.0
53792.0,STARLINK-4739,PAYLOAD,2023-06-10 20:18:11,15.08836528,0.0001211,53.2164,95.8591,97.2867,262.8263,-4.1629e-05,-9.5e-06,0.0,0 STARLINK-4739,1 53792U 22111V   23161.84596370 -.00000950  00000-0 -41629-4 0  9990,2 53792  53.2164  95.8591 0001211  97.2867 262.8263 15.08836528 42292,6917.891,95.438,540.594,538.918,0.0
53792.0,STARLINK-4739,PAYLOAD,2023-06-11 04:15:06,15.08842977,0.0001227,53.2165,94.3731,94.635,265.4782,2.4334e-05,9.9e-07,0.0,0 STARLINK-4739,1 53792U 22111V   23162.17715858  .00000099  00000-0  24334-4 0  9997,2 53792  53.2165  94.3731 0001227  94.6350 265.4782 15.08842977 41545,6917.871,95.437,540.585,538.887,0.0
53792.0,STARLINK-4739,PAYLOAD,2023-06-11 12:12:02,15.08842929,0.0001186,53.2166,92.8862,107.7759,252.3363,-1.7343e-05,-5.64e-06,0.0,0 STARLINK-4739,1 53792U 22111V   23162.50835904 -.00000564  00000-0 -17343-4 0  9990,2 53792  53.2166  92.8862 0001186 107.7759 252.3363 15.08842929 42398,6917.871,95.437,540.557,538.916,0.0
53792.0,STARLINK-4739,PAYLOAD,2023-06-11 20:08:58,15.08837006,0.0001233,53.2168,91.3994,99.8733,260.2398,6.5508e-05,7.55e-06,0.0,0 STARLINK-4739,1 53792U 22111V   23162.83956338  .00000755  00000-0  65508-4 0  9997,2 53792  53.2168  91.3994 0001233  99.8733 260.2398 15.08837006 42448,6917.89,95.438,540.608,538.902,0.0
53792.0,STARLINK-4739,PAYLOAD,2023-06-12 12:02:49,15.0883881,0.0001163,53.217,88.426,97.8123,262.3002,4.0875e-05,3.63e-06,0.0,0 STARLINK-4739,1 53792U 22111V   23163.50196335  .00000363  00000-0  40875-4 0  9990,2 53792  53.2170  88.4260 0001163  97.8123 262.3002 15.08838810 42547,6917.884,95.438,540.554,538.944,0.0
53792.0,STARLINK-4739,PAYLOAD,2023-06-13 03:56:40,15.08840418,0.0001214,53.2166,85.4519,88.8408,271.2723,8.0633e-05,9.96e-06,0.0,0 STARLINK-4739,1 53792U 22111V   23164.16436314  .00000996  00000-0  80633-4 0  9995,2 53792  53.2166  85.4519 0001214  88.8408 271.2723 15.08840418 42646,6917.879,95.438,540.584,538.904,0.0
53792.0,STARLINK-4739,PAYLOAD,2023-06-13 18:15:09,15.08837403,0.0001281,53.2168,82.7765,87.7628,272.3511,7.4165e-05,8.93e-06,0.0,0 STARLINK-4739,1 53792U 22111V   23164.76052648  .00000893  00000-0  74165-4 0  9994,2 53792  53.2168  82.7765 0001281  87.7628 272.3511 15.08837403 41935,6917.888,95.438,540.64,538.867,0.0
53792.0,STARLINK-4739,PAYLOAD,2023-06-14 03:47:27,15.08843694,0.0001241,53.2164,80.9916,83.9184,276.195,7.267e-05,8.69e-06,0.0,0 STARLINK-4739,1 53792U 22111V   23165.15796290  .00000869  00000-0  72670-4 0  9998,2 53792  53.2164  80.9916 0001241  83.9184 276.1950 15.08843694 42793,6917.869,95.437,540.593,538.876,0.0
53792.0,STARLINK-4739,PAYLOAD,2023-06-14 18:05:56,15.08829593,0.000137,53.2158,78.3153,86.7209,273.394,0.00025609,3.789e-05,0.0,0 STARLINK-4739,1 53792U 22111V   23165.75412753  .00003789  00000-0  25609-3 0  9996,2 53792  53.2158  78.3153 0001370  86.7209 273.3940 15.08829593 42882,6917.912,95.438,540.725,538.829,0.0
53792.0,STARLINK-4739,PAYLOAD,2023-06-15 00:27:28,15.08845588,0.0001208,53.2169,77.1266,83.0061,277.1069,0.00012719,1.737e-05,0.0,0 STARLINK-4739,1 53792U 22111V   23166.01907975  .00001737  00000-0  12719-3 0  9990,2 53792  53.2169  77.1266 0001208  83.0061 277.1069 15.08845588 42125,6917.863,95.437,540.564,538.893,0.0
53792.0,STARLINK-4739,PAYLOAD,2023-06-15 03:38:14,15.08848846,0.000124,53.2166,76.5313,85.1954,274.9179,9.2033e-05,1.177e-05,0.0,0 STARLINK-4739,1 53792U 22111V   23166.15155842  .00001177  00000-0  92033-4 0  9999,2 53792  53.2166  76.5313 0001240  85.1954 274.9179 15.08848846 42945,6917.853,95.437,540.576,538.861,0.0
53792.0,STARLINK-4739,PAYLOAD,2023-06-15 17:56:43,15.08840343,0.0001154,53.2165,73.8555,85.8171,274.2953,7.2593e-05,8.68e-06,0.0,0 STARLINK-4739,1 53792U 22111V   23166.74772439  .00000868  00000-0  72593-4 0  9996,2 53792  53.2165  73.8555 0001154  85.8171 274.2953 15.08840343 42233,6917.879,95.438,540.543,538.946,0.0
53792.0,STARLINK-4739,PAYLOAD,2023-06-16 03:29:01,15.08851235,0.0001157,53.2169,72.0695,92.4216,267.6908,0.0001108,1.476e-05,0.0,0 STARLINK-4739,1 53792U 22111V   23167.14515582  .00001476  00000-0  11080-3 0  9994,2 53792  53.2169  72.0695 0001157  92.4216 267.6908 15.08851235 42294,6917.846,95.437,540.511,538.911,0.0
53792.0,STARLINK-4739,PAYLOAD,2023-06-16 17:47:29,15.08845577,0.0001252,53.2163,69.3922,105.1002,255.0128,9.9697e-05,1.299e-05,0.0,0 STARLINK-4739,1 53792U 22111V   23167.74131743  .00001299  00000-0  99697-4 0  9997,2 53792  53.2163  69.3922 0001252 105.1002 255.0128 15.08845577 43187,6917.863,95.437,540.594,538.862,0.0
53792.0,STARLINK-4739,PAYLOAD,2023-06-17 03:19:48,15.08854416,0.00012,53.2162,67.6082,98.8675,261.2453,0.00017925,2.567e-05,0.0,0 STARLINK-4739,1 53792U 22111V   23168.13875166  .00002567  00000-0  17925-3 0  9997,2 53792  53.2162  67.6082 0001200  98.8675 261.2453 15.08854416 43240,6917.836,95.437,540.531,538.871,0.0
53792.0,STARLINK-4739,PAYLOAD,2023-06-17 17:38:18,15.08821051,7.94e-05,53.2169,64.9344,90.5512,269.5571,-0.00026011,-4.423e-05,0.0,0 STARLINK-4739,1 53792U 22111V   23168.73493199 -.00004423  00000-0 -26011-3 0  9996,2 53792  53.2169  64.9344 0000794  90.5512 269.5571 15.08821051 42536,6917.938,95.439,540.353,539.254,0.0
53792.0,STARLINK-4739,PAYLOAD,2023-06-17 19:13:41,15.08823049,9.94e-05,53.2168,64.6372,98.2222,261.8883,-0.00022764,-3.907e-05,0.0,0 STARLINK-4739,1 53792U 22111V   23168.80117151 -.00003907  00000-0 -22764-3 0  9992,2 53792  53.2168  64.6372 0000994  98.2222 261.8883 15.08823049 43348,6917.932,95.439,540.485,539.11,0.0
53792.0,STARLINK-4739,PAYLOAD,2023-06-18 09:32:09,15.08832974,0.000104,53.2164,61.9606,101.6943,258.4166,-1.9508e-05,-5.98e-06,0.0,0 STARLINK-4739,1 53792U 22111V   23169.39733080 -.00000598  00000-0 -19508-4 0  9998,2 53792  53.2164  61.9606 0001040 101.6943 258.4166 15.08832974 42630,6917.902,95.438,540.486,539.047,0.0
53792.0,STARLINK-4739,PAYLOAD,2023-06-18 19:04:28,15.08841737,9.74e-05,53.2164,60.1765,99.9419,260.1683,0.00038084,5.779e-05,0.0,0 STARLINK-4739,1 53792U 22111V   23169.79477047  .00005779  00000-0  38084-3 0  9993,2 53792  53.2164  60.1765 0000974  99.9419 260.1683 15.08841737 43495,6917.875,95.437,540.414,539.066,0.0
53792.0,STARLINK-4739,PAYLOAD,2023-06-19 03:01:23,15.08861631,9.46e-05,53.2163,58.6897,106.5739,253.5357,0.0011315,0.00017776,0.0,0 STARLINK-4739,1 53792U 22111V   23170.12596871  .00017776  00000-0  11315-2 0  9996,2 53792  53.2163  58.6897 0000946 106.5739 253.5357 15.08861631 42747,6917.814,95.436,540.334,539.025,0.0
53792.0,STARLINK-4739,PAYLOAD,2023-06-19 10:58:19,15.08854927,0.0001072,53.2157,57.204,98.9516,261.1598,0.00054269,8.363e-05,0.0,0 STARLINK-4739,1 53792U 22111V   23170.45716880  .00008363  00000-0  54269-3 0  9994,2 53792  53.2157  57.2040 0001072  98.9516 261.1598 15.08854927 42790,6917.835,95.437,540.441,538.958,0.0
53792.0,STARLINK-4739,PAYLOAD,2023-06-19 18:55:15,15.08851929,0.0001011,53.2158,55.7162,106.8734,253.2369,0.00043955,6.717e-05,0.0,0 STARLINK-4739,1 53792U 22111V   23170.78836881  .00006717  00000-0  43955-3 0  9995,2 53792  53.2158  55.7162 0001011 106.8734 253.2369 15.08851929 43645,6917.844,95.437,540.408,539.01,0.0
53792.0,STARLINK-4739,PAYLOAD,2023-06-20 02:52:10,15.08858851,9.96e-05,53.2157,54.2293,114.4803,245.6293,0.00074249,0.00011555,0.0,0 STARLINK-4739,1 53792U 22111V   23171.11956601  .00011555  00000-0  74249-3 0  9992,2 53792  53.2157  54.2293 0000996 114.4803 245.6293 15.08858851 42894,6917.823,95.436,540.377,538.999,0.0
53792.0,STARLINK-4739,PAYLOAD,2023-06-20 10:49:06,15.08849524,9.93e-05,53.2156,52.7422,121.1389,238.9701,0.00059577,9.209e-05,0.0,0 STARLINK-4739,1 53792U 22111V   23171.45076565  .00009209  00000-0  59577-3 0  9991,2 53792  53.2156  52.7422 0000993 121.1389 238.9701 15.08849524 43742,6917.851,95.437,540.403,539.029,0.0
53792.0,STARLINK-4739,PAYLOAD,2023-06-20 17:10:38,15.08843828,8.29e-05,53.2155,51.5529,119.295,240.8125,0.00068491,0.0001063,0.0,0 STARLINK-4739,1 53792U 22111V   23171.71572799  .00010630  00000-0  68491-3 0  9995,2 53792  53.2155  51.5529 0000829 119.2950 240.8125 15.08843828 42984,6917.869,95.437,540.307,539.16,0.0
